NORAD_CAT_ID,OBJECT_NAME,OBJECT_TYPE,EPOCH,MEAN_MOTION,ECCENTRICITY,INCLINATION,RA_OF_ASC_NODE,ARG_OF_PERICENTER,MEAN_ANOMALY,BSTAR,MEAN_MOTION_DOT,MEAN_MOTION_DDOT,TLE_LINE0,TLE_LINE1,TLE_LINE2,SEMIMAJOR_AXIS,PERIOD,APOGEE,PERIGEE,DECAYED
52292.0,STARLINK-3753,PAYLOAD,2024-06-13 02:29:05,15.08833975,0.0001787,53.2176,67.8918,77.3505,282.7686,-4.9123e-05,-1.07e-05,0.0,0 STARLINK-3753,1 52292U 22041AH  24165.10353045 -.00001070  00000-0 -49123-4 0  9991,2 52292  53.2176  67.8918 0001787  77.3505 282.7686 15.08833975119925,6917.899,95.438,541.0,538.528,0.0
52292.0,STARLINK-3753,PAYLOAD,2024-06-13 21:33:42,15.08840654,0.0001744,53.2189,64.3273,95.8349,264.2842,2.9359e-05,1.79e-06,0.0,0 STARLINK-3753,1 52292U 22041AH  24165.89840457  .00000179  00000-0  29359-4 0  9991,2 52292  53.2189  64.3273 0001744  95.8349 264.2842 15.08840654118828,6917.878,95.438,540.95,538.537,0.0
52292.0,STARLINK-3753,PAYLOAD,2024-06-14 10:16:46,15.08848187,0.0001561,53.2191,61.9464,81.7765,278.3404,4.8234e-06,-2.11e-06,0.0,0 STARLINK-3753,1 52292U 22041AH  24166.42832008 -.00000211  00000-0  48234-5 0  9996,2 52292  53.2191  61.9464 0001561  81.7765 278.3404 15.08848187118907,6917.855,95.437,540.8,538.64,0.0
52292.0,STARLINK-3753,PAYLOAD,2024-06-14 21:24:30,15.08814598,0.0001732,53.2196,59.8619,84.3049,275.8141,0.0003456,5.213e-05,0.0,0 STARLINK-3753,1 52292U 22041AH  24166.89201763  .00005213  00000-0  34560-3 0  9996,2 52292  53.2196  59.8619 0001732  84.3049 275.8141 15.08814598118970,6917.958,95.439,541.021,538.625,0.0
52292.0,STARLINK-3753,PAYLOAD,2024-06-15 10:07:34,15.0883941,0.0001601,53.2186,57.4878,80.2095,279.9078,8.5368e-05,1.071e-05,0.0,0 STARLINK-3753,1 52292U 22041AH  24167.42192774  .00001071  00000-0  85368-4 0  9998,2 52292  53.2186  57.4878 0001601  80.2095 279.9078 15.08839410119055,6917.882,95.438,540.855,538.64,0.0
52292.0,STARLINK-3753,PAYLOAD,2024-06-15 22:50:39,15.0884723,0.000146,53.2177,55.1095,88.1738,271.9422,3.8572e-05,3.26e-06,0.0,0 STARLINK-3753,1 52292U 22041AH  24167.95184430  .00000326  00000-0  38572-4 0  9993,2 52292  53.2177  55.1095 0001460  88.1738 271.9422 15.08847230119138,6917.858,95.437,540.733,538.713,0.0
52292.0,STARLINK-3753,PAYLOAD,2024-06-16 09:58:21,15.0884614,0.0001399,53.2183,53.0258,88.4314,271.6838,2.0683e-05,4.1e-07,0.0,0 STARLINK-3753,1 52292U 22041AH  24168.41552390  .00000041  00000-0  20683-4 0  9997,2 52292  53.2183  53.0258 0001399  88.4314 271.6838 15.08846140119202,6917.862,95.437,540.694,538.759,0.0
52292.0,STARLINK-3753,PAYLOAD,2024-06-16 22:41:26,15.08842199,0.000148,53.219,50.6464,91.7403,268.3759,3.5324e-05,2.74e-06,0.0,0 STARLINK-3753,1 52292U 22041AH  24168.94544748  .00000274  00000-0  35324-4 0  9999,2 52292  53.2190  50.6464 0001480  91.7403 268.3759 15.08842199119282,6917.874,95.437,540.763,538.715,0.0
52292.0,STARLINK-3753,PAYLOAD,2024-06-17 22:32:13,15.0884473,0.0001642,53.2189,46.1857,91.1565,268.9615,6.2086e-05,7e-06,0.0,0 STARLINK-3753,1 52292U 22041AH  24169.93904477  .00000700  00000-0  62086-4 0  9997,2 52292  53.2189  46.1857 0001642  91.1565 268.9615 15.08844730119436,6917.866,95.437,540.867,538.595,0.0
52292.0,STARLINK-3753,PAYLOAD,2024-06-18 01:42:59,15.08851682,0.0001686,53.2189,45.591,90.8838,269.2348,-2.4223e-05,-6.74e-06,0.0,0 STARLINK-3753,1 52292U 22041AH  24170.07152276 -.00000674  00000-0 -24223-4 0  9999,2 52292  53.2189  45.5910 0001686  90.8838 269.2348 15.08851682120675,6917.845,95.437,540.876,538.543,0.0
52292.0,STARLINK-3753,PAYLOAD,2024-06-18 19:12:14,15.08837187,0.0001616,53.2185,42.321,99.5241,260.5934,4.6489e-05,4.52e-06,0.0,0 STARLINK-3753,1 52292U 22041AH  24170.80016924  .00000452  00000-0  46489-4 0  9999,2 52292  53.2185  42.3210 0001616  99.5241 260.5934 15.08837187120787,6917.889,95.438,540.872,538.636,0.0
52292.0,STARLINK-3753,PAYLOAD,2024-06-18 22:23:00,15.08845101,0.0001484,53.2179,41.7259,84.8596,275.2566,0.00012087,1.636e-05,0.0,0 STARLINK-3753,1 52292U 22041AH  24170.93264214  .00001636  00000-0  12087-3 0  9991,2 52292  53.2179  41.7259 0001484  84.8596 275.2566 15.08845101119584,6917.865,95.437,540.756,538.703,0.0
52292.0,STARLINK-3753,PAYLOAD,2024-06-19 01:33:46,15.08846177,0.0001424,53.2176,41.1313,82.6624,277.453,0.00010267,1.347e-05,0.0,0 STARLINK-3753,1 52292U 22041AH  24171.06512155  .00001347  00000-0  10267-3 0  9993,2 52292  53.2176  41.1313 0001424  82.6624 277.4530 15.08846177120826,6917.862,95.437,540.712,538.741,0.0
52292.0,STARLINK-3753,PAYLOAD,2024-06-19 07:55:19,15.08838275,0.0001353,53.217,39.9387,76.4157,283.6986,6.1272e-05,6.87e-06,0.0,0 STARLINK-3753,1 52292U 22041AH  24171.33008841  .00000687  00000-0  61272-4 0  9994,2 52292  53.2170  39.9387 0001353  76.4157 283.6986 15.08838275120867,6917.886,95.438,540.687,538.815,0.0
52292.0,STARLINK-3753,PAYLOAD,2024-06-19 22:13:48,15.08838039,0.000141,53.218,37.2644,87.2802,272.8351,1.4475e-05,-5.8e-07,0.0,0 STARLINK-3753,1 52292U 22041AH  24171.92625084 -.00000058  00000-0  14475-4 0  9999,2 52292  53.2180  37.2644 0001410  87.2802 272.8351 15.08838039119734,6917.886,95.438,540.727,538.776,0.0
52292.0,STARLINK-3753,PAYLOAD,2024-06-20 14:07:39,15.08835332,0.0001532,53.2186,34.2933,85.2597,274.857,4.7646e-05,4.7e-06,0.0,0 STARLINK-3753,1 52292U 22041AH  24172.58865314  .00000470  00000-0  47646-4 0  9997,2 52292  53.2186  34.2933 0001532  85.2597 274.8570 15.08835332119831,6917.895,95.438,540.819,538.7,0.0
52292.0,STARLINK-3753,PAYLOAD,2024-06-20 22:04:35,15.08840382,0.000151,53.2187,32.8061,81.4291,278.6873,-4.88e-05,-1.065e-05,0.0,0 STARLINK-3753,1 52292U 22041AH  24172.91985455 -.00001065  00000-0 -48800-4 0  9999,2 52292  53.2187  32.8061 0001510  81.4291 278.6873 15.08840382119887,6917.879,95.438,540.789,538.7,0.0
52292.0,STARLINK-3753,PAYLOAD,2024-06-20 23:39:58,15.08839001,0.0001551,53.2189,32.5086,79.3451,280.7716,4.4267e-06,-2.18e-06,0.0,0 STARLINK-3753,1 52292U 22041AH  24172.98609390 -.00000218  00000-0  44267-5 0  9999,2 52292  53.2189  32.5086 0001551  79.3451 280.7716 15.08839001121117,6917.883,95.438,540.821,538.675,0.0
52292.0,STARLINK-3753,PAYLOAD,2024-06-21 20:19:59,15.08822215,0.000168,53.219,28.6431,82.2631,277.8552,0.00028627,4.269e-05,0.0,0 STARLINK-3753,1 52292U 22041AH  24173.84721706  .00004269  00000-0  28627-3 0  9990,2 52292  53.2190  28.6431 0001680  82.2631 277.8552 15.08822215120028,6917.935,95.439,540.962,538.638,0.0
52292.0,STARLINK-3753,PAYLOAD,2024-06-22 13:49:13,15.08836297,0.0001748,53.2193,25.3719,101.9245,258.1943,7.7076e-05,9.39e-06,0.0,0 STARLINK-3753,1 52292U 22041AH  24174.57585570  .00000939  00000-0  77076-4 0  9991,2 52292  53.2193  25.3719 0001748 101.9245 258.1943 15.08836297121357,6917.892,95.438,540.966,538.547,0.0
52292.0,STARLINK-3753,PAYLOAD,2024-06-22 20:10:46,15.08834631,0.0001718,53.2193,24.1822,94.3768,265.742,4.5525e-05,4.36e-06,0.0,0 STARLINK-3753,1 52292U 22041AH  24174.84081908  .00000436  00000-0  45525-4 0  9993,2 52292  53.2193  24.1822 0001718  94.3768 265.7420 15.08834631120174,6917.897,95.438,540.95,538.573,0.0
52292.0,STARLINK-3753,PAYLOAD,2024-06-23 20:01:32,15.08844976,0.0002075,53.2197,19.7197,127.7627,232.3553,7.6136e-05,9.24e-06,0.0,0 STARLINK-3753,1 52292U 22041AH  24175.83440865  .00000924  00000-0  76136-4 0  9998,2 52292  53.2197  19.7197 0002075 127.7627 232.3553 15.08844976121547,6917.865,95.437,541.166,538.295,0.0
52292.0,STARLINK-3753,PAYLOAD,2024-06-24 19:52:20,15.08840449,0.0001538,53.2172,15.2601,70.1311,289.9847,2.8993e-05,1.73e-06,0.0,0 STARLINK-3753,1 52292U 22041AH  24176.82801602  .00000173  00000-0  28993-4 0  9992,2 52292  53.2172  15.2601 0001538  70.1311 289.9847 15.08840449121696,6917.879,95.438,540.808,538.68,0.0
52292.0,STARLINK-3753,PAYLOAD,2024-06-25 21:18:30,15.08841808,0.0001657,53.2185,10.4984,103.339,256.7787,5.513e-05,5.89e-06,0.0,0 STARLINK-3753,1 52292U 22041AH  24177.88785165  .00000589  00000-0  55130-4 0  9998,2 52292  53.2185  10.4984 0001657 103.3390 256.7787 15.08841808120637,6917.875,95.437,540.886,538.594,0.0
52292.0,STARLINK-3753,PAYLOAD,2024-06-27 05:06:13,15.08838815,0.0001428,53.2181,4.5544,95.2095,264.9061,1.3676e-05,-7e-07,0.0,0 STARLINK-3753,1 52292U 22041AH  24179.21265602 -.00000070  00000-0  13676-4 0  9991,2 52292  53.2181   4.5544 0001428  95.2095 264.9061 15.08838815122054,6917.884,95.438,540.737,538.761,0.0
52292.0,STARLINK-3753,PAYLOAD,2024-06-27 19:24:41,15.08838727,0.0001386,53.2174,1.8824,105.8173,254.2972,-2.7001e-05,-7.18e-06,0.0,0 STARLINK-3753,1 52292U 22041AH  24179.80881876 -.00000718  00000-0 -27001-4 0  9990,2 52292  53.2174   1.8824 0001386 105.8173 254.2972 15.08838727120924,6917.884,95.438,540.708,538.79,0.0
52292.0,STARLINK-3753,PAYLOAD,2024-06-28 04:57:00,15.08840044,0.0001545,53.2183,0.0934,86.1087,274.0082,1.0399e-05,-1.22e-06,0.0,0 STARLINK-3753,1 52292U 22041AH  24180.20625734 -.00000122  00000-0  10399-4 0  9995,2 52292  53.2183   0.0934 0001545  86.1087 274.0082 15.08840044120982,6917.88,95.438,540.814,538.676,0.0
52292.0,STARLINK-3753,PAYLOAD,2024-06-28 19:15:27,15.08852243,0.0001207,53.2162,357.4208,109.6409,250.4713,0.00023799,3.503e-05,0.0,0 STARLINK-3753,1 52292U 22041AH  24180.80240088  .00003503  00000-0  23799-3 0  9998,2 52292  53.2162 357.4208 0001207 109.6409 250.4713 15.08852243122295,6917.843,95.437,540.543,538.873,0.0
52292.0,STARLINK-3753,PAYLOAD,2024-06-29 04:47:48,15.08828601,0.0001235,53.2158,355.636,97.65,262.4632,3.0473e-05,1.97e-06,0.0,0 STARLINK-3753,1 52292U 22041AH  24181.19986203  .00000197  00000-0  30473-4 0  9991,2 52292  53.2158 355.6360 0001235  97.6500 262.4632 15.08828601122359,6917.915,95.438,540.635,538.926,0.0
52292.0,STARLINK-3753,PAYLOAD,2024-06-29 11:09:20,15.0882927,0.0001226,53.2159,354.4462,97.5285,262.5846,3.3204e-05,2.4e-06,0.0,0 STARLINK-3753,1 52292U 22041AH  24181.46482315  .00000240  00000-0  33204-4 0  9990,2 52292  53.2159 354.4462 0001226  97.5285 262.5846 15.08829270121179,6917.913,95.438,540.626,538.93,0.0
